start=new Date('2022-11-10T00:00:00.000Z').valueOf();
sats=[{"OBJECT_ID":"2022-017J","INCLINATION":"53.2208","TLE_LINE1":"1 51776U 22017J   22313.55617035 -.00003118  00000-0 -17805-3 0  9990","DECAY_DATE":null,"MEAN_MOTION_DOT":"-0.00003118","REF_FRAME":"TEME","TLE_LINE2":"2 51776  53.2208  38.5616 0002210  44.6341 315.4829 15.08808674 40467","ECCENTRICITY":"0.00022100","SITE":"AFWTR","PERIOD":"95.440","TIME_SYSTEM":"UTC","MEAN_ELEMENT_THEORY":"SGP4","EPHEMERIS_TYPE":"0","NORAD_CAT_ID":"51776","MEAN_ANOMALY":"315.4829","RCS_SIZE":"LARGE","SEMIMAJOR_AXIS":"6917.976","EPOCH":"2022-11-09T13:20:53.118240","OBJECT_TYPE":"PAYLOAD","COUNTRY_CODE":"US","LAUNCH_DATE":"2022-02-25","MEAN_MOTION":"15.08808674","BSTAR":"-0.00017805000000","ELEMENT_SET_NO":"999","CLASSIFICATION_TYPE":"U","GP_ID":"217252003","RA_OF_ASC_NODE":"38.5616","CENTER_NAME":"EARTH","PERIAPSIS":"538.312","FILE":"3649989","OBJECT_NAME":"STARLINK-3608","APOAPSIS":"541.370","REV_AT_EPOCH":"4046","MEAN_MOTION_DDOT":"0.0000000000000","ARG_OF_PERICENTER":"44.6341"},{"LAUNCH_DATE":"2022-02-25","MEAN_MOTION":"15.08796007","BSTAR":"-0.00029329000000","OBJECT_TYPE":"PAYLOAD","COUNTRY_CODE":"US","SEMIMAJOR_AXIS":"6918.015","RCS_SIZE":"LARGE","EPOCH":"2022-11-09T15:06:53.448192","MEAN_ELEMENT_THEORY":"SGP4","NORAD_CAT_ID":"51777","MEAN_ANOMALY":"324.6110","EPHEMERIS_TYPE":"0","TIME_SYSTEM":"UTC","ECCENTRICITY":"0.00023210","PERIOD":"95.440","SITE":"AFWTR","OBJECT_ID":"2022-017K","TLE_LINE2":"2 51777  53.2202  38.2310 0002321  35.5036 324.6110 15.08796007 39013","REF_FRAME":"TEME","TLE_LINE1":"1 51777U 22017K   22313.62978528 -.00004947  00000-0 -29329-3 0  9991","DECAY_DATE":null,"MEAN_MOTION_DOT":"-0.00004947","INCLINATION":"53.2202","MEAN_MOTION_DDOT":"0.0000000000000","ARG_OF_PERICENTER":"35.5036","APOAPSIS":"541.486","REV_AT_EPOCH":"3901","FILE":"3650001","PERIAPSIS":"538.274","OBJECT_NAME":"STARLINK-3625","RA_OF_ASC_NODE":"38.2310","CENTER_NAME":"EARTH","GP_ID":"217276378","CLASSIFICATION_TYPE":"U","ELEMENT_SET_NO":"999"},{"ELEMENT_SET_NO":"999","CLASSIFICATION_TYPE":"U","GP_ID":"217251895","RA_OF_ASC_NODE":"28.4599","CENTER_NAME":"EARTH","OBJECT_NAME":"STARLINK-3615","FILE":"3649989","PERIAPSIS":"538.447","APOAPSIS":"541.321","REV_AT_EPOCH":"4061","MEAN_MOTION_DDOT":"0.0000000000000","ARG_OF_PERICENTER":"39.5126","OBJECT_ID":"2022-017L","TLE_LINE1":"1 51778U 22017L   22313.57646075 -.00004290  00000-0 -25190-3 0  9998","DECAY_DATE":null,"MEAN_MOTION_DOT":"-0.00004290","INCLINATION":"53.2191","REF_FRAME":"TEME","TLE_LINE2":"2 51778  53.2191  28.4599 0002077  39.5126 320.6018 15.08794763 40611","ECCENTRICITY":"0.00020770","PERIOD":"95.440","SITE":"AFWTR","TIME_SYSTEM":"UTC","MEAN_ELEMENT_THEORY":"SGP4","EPHEMERIS_TYPE":"0","NORAD_CAT_ID":"51778","MEAN_ANOMALY":"320.6018","RCS_SIZE":"LARGE","SEMIMAJOR_AXIS":"6918.019","EPOCH":"2022-11-09T13:50:06.208800","OBJECT_TYPE":"PAYLOAD","COUNTRY_CODE":"US","LAUNCH_DATE":"2022-02-25","MEAN_MOTION":"15.08794763","BSTAR":"-0.00025190000000"},{"ECCENTRICITY":"0.00025470","SITE":"AFWTR","PERIOD":"95.438","OBJECT_ID":"2022-017M","TLE_LINE2":"2 51779  53.2197  38.5843 0002547  32.4724 327.6424 15.08831443 40468","MEAN_MOTION_DOT":"-0.00000591","TLE_LINE1":"1 51779U 22017M   22313.55247974 -.00000591  00000-0 -18985-4 0  9997","DECAY_DATE":null,"INCLINATION":"53.2197","REF_FRAME":"TEME","MEAN_ELEMENT_THEORY":"SGP4","NORAD_CAT_ID":"51779","MEAN_ANOMALY":"327.6424","EPHEMERIS_TYPE":"0","TIME_SYSTEM":"UTC","OBJECT_TYPE":"PAYLOAD","COUNTRY_CODE":"US","SEMIMAJOR_AXIS":"6917.907","RCS_SIZE":"LARGE","EPOCH":"2022-11-09T13:15:34.249536","MEAN_MOTION":"15.08831443","LAUNCH_DATE":"2022-02-25","BSTAR":"-0.00001898500000","CLASSIFICATION_TYPE":"U","ELEMENT_SET_NO":"999","RA_OF_ASC_NODE":"38.5843","CENTER_NAME":"EARTH","GP_ID":"217251899","APOAPSIS":"541.534","REV_AT_EPOCH":"4046","FILE":"3649989","OBJECT_NAME":"STARLINK-3611","PERIAPSIS":"538.010","MEAN_MOTION_DDOT":"0.0000000000000","ARG_OF_PERICENTER":"32.4724"},{"OBJECT_NAME":"STARLINK-3617","FILE":"3649989","PERIAPSIS":"538.405","APOAPSIS":"541.155","REV_AT_EPOCH":"4051","MEAN_MOTION_DDOT":"0.0000000000000","ARG_OF_PERICENTER":"37.7742","ELEMENT_SET_NO":"999","CLASSIFICATION_TYPE":"U","GP_ID":"217251897","RA_OF_ASC_NODE":"38.6317","CENTER_NAME":"EARTH","SEMIMAJOR_AXIS":"6917.915","RCS_SIZE":"LARGE","EPOCH":"2022-11-09T13:01:03.390240","OBJECT_TYPE":"PAYLOAD","COUNTRY_CODE":"US","LAUNCH_DATE":"2022-02-25","MEAN_MOTION":"15.08828696","BSTAR":"0.00000664920000","OBJECT_ID":"2022-017N","TLE_LINE2":"2 51780  53.2177  38.6317 0001987  37.7742 322.3390 15.08828696 40516","INCLINATION":"53.2177","TLE_LINE1":"1 51780U 22017N   22313.54240035 -.00000182  00000-0  66492-5 0  9991","DECAY_DATE":null,"MEAN_MOTION_DOT":"-0.00000182","REF_FRAME":"TEME","ECCENTRICITY":"0.00019870","PERIOD":"95.438","SITE":"AFWTR","TIME_SYSTEM":"UTC","MEAN_ELEMENT_THEORY":"SGP4","NORAD_CAT_ID":"51780","MEAN_ANOMALY":"322.3390","EPHEMERIS_TYPE":"0"},{"GP_ID":"217275878","RA_OF_ASC_NODE":"38.3024","CENTER_NAME":"EARTH","ELEMENT_SET_NO":"999","CLASSIFICATION_TYPE":"U","MEAN_MOTION_DDOT":"0.0000000000000","ARG_OF_PERICENTER":"31.3195","PERIAPSIS":"537.908","FILE":"3650001","OBJECT_NAME":"STARLINK-3580","APOAPSIS":"541.830","REV_AT_EPOCH":"3883","TIME_SYSTEM":"UTC","MEAN_ELEMENT_THEORY":"SGP4","EPHEMERIS_TYPE":"0","MEAN_ANOMALY":"328.7965","NORAD_CAT_ID":"51781","OBJECT_ID":"2022-017P","DECAY_DATE":null,"TLE_LINE1":"1 51781U 22017P   22313.61506302 -.00004878  00000-0 -28888-3 0  9994","MEAN_MOTION_DOT":"-0.00004878","REF_FRAME":"TEME","INCLINATION":"53.2193","TLE_LINE2":"2 51781  53.2193  38.3024 0002835  31.3195 328.7965 15.08799598 38830","ECCENTRICITY":"0.00028350","PERIOD":"95.440","SITE":"AFWTR","BSTAR":"-0.00028888000000","LAUNCH_DATE":"2022-02-25","MEAN_MOTION":"15.08799598","RCS_SIZE":"LARGE","SEMIMAJOR_AXIS":"6918.004","EPOCH":"2022-11-09T14:45:41.444928","OBJECT_TYPE":"PAYLOAD","COUNTRY_CODE":"US"},{"TLE_LINE1":"1 51782U 22017Q   22313.63251939  .00000296  00000-0  36733-4 0  9997","DECAY_DATE":null,"MEAN_MOTION_DOT":"0.00000296","REF_FRAME":"TEME","INCLINATION":"53.2179","TLE_LINE2":"2 51782  53.2179  48.2010 0002024  32.2121 327.8995 15.08831868 38604","OBJECT_ID":"2022-017Q","SITE":"AFWTR","PERIOD":"95.438","ECCENTRICITY":"0.00020240","TIME_SYSTEM":"UTC","EPHEMERIS_TYPE":"0","NORAD_CAT_ID":"51782","MEAN_ANOMALY":"327.8995","MEAN_ELEMENT_THEORY":"SGP4","EPOCH":"2022-11-09T15:10:49.675296","RCS_SIZE":"LARGE","SEMIMAJOR_AXIS":"6917.905","COUNTRY_CODE":"US","OBJECT_TYPE":"PAYLOAD","MEAN_MOTION":"15.08831868","LAUNCH_DATE":"2022-02-25","BSTAR":"0.00003673300000","ELEMENT_SET_NO":"999","CLASSIFICATION_TYPE":"U","GP_ID":"217274626","RA_OF_ASC_NODE":"48.2010","CENTER_NAME":"EARTH","PERIAPSIS":"538.370","FILE":"3650001","OBJECT_NAME":"STARLINK-3616","REV_AT_EPOCH":"3860","APOAPSIS":"541.170","ARG_OF_PERICENTER":"32.2121","MEAN_MOTION_DDOT":"0.0000000000000"},{"EPOCH":"2022-11-09T13:04:55.277472","RCS_SIZE":"LARGE","SEMIMAJOR_AXIS":"6917.818","COUNTRY_CODE":"US","OBJECT_TYPE":"PAYLOAD","LAUNCH_DATE":"2022-02-25","BSTAR":"-0.00015805000000","MEAN_MOTION":"15.08860489","TLE_LINE1":"1 51783U 22017R   22313.54508423 -.00002804  00000-0 -15805-3 0  9996","DECAY_DATE":null,"MEAN_MOTION_DOT":"-0.00002804","REF_FRAME":"TEME","INCLINATION":"53.2191","TLE_LINE2":"2 51783  53.2191  38.6118 0001980  30.2413 329.8693 15.08860489 40468","OBJECT_ID":"2022-017R","PERIOD":"95.436","SITE":"AFWTR","ECCENTRICITY":"0.00019800","TIME_SYSTEM":"UTC","EPHEMERIS_TYPE":"0","NORAD_CAT_ID":"51783","MEAN_ANOMALY":"329.8693","MEAN_ELEMENT_THEORY":"SGP4","FILE":"3649982","PERIAPSIS":"538.313","OBJECT_NAME":"STARLINK-3628","REV_AT_EPOCH":"4046","APOAPSIS":"541.052","ARG_OF_PERICENTER":"30.2413","MEAN_MOTION_DDOT":"0.0000000000000","ELEMENT_SET_NO":"999","CLASSIFICATION_TYPE":"U","GP_ID":"217251915","RA_OF_ASC_NODE":"38.6118","CENTER_NAME":"EARTH"},{"APOAPSIS":"540.836","REV_AT_EPOCH":"3869","FILE":"3650001","PERIAPSIS":"538.752","OBJECT_NAME":"STARLINK-3632","MEAN_MOTION_DDOT":"0.0000000000000","ARG_OF_PERICENTER":"56.5675","CLASSIFICATION_TYPE":"U","ELEMENT_SET_NO":"999","RA_OF_ASC_NODE":"48.2263","CENTER_NAME":"EARTH","GP_ID":"217276127","OBJECT_TYPE":"PAYLOAD","COUNTRY_CODE":"US","SEMIMAJOR_AXIS":"6917.929","RCS_SIZE":"LARGE","EPOCH":"2022-11-09T15:05:31.807968","LAUNCH_DATE":"2022-02-25","MEAN_MOTION":"15.08824086","BSTAR":"-0.00005251100000","ECCENTRICITY":"0.00015060","PERIOD":"95.439","SITE":"AFWTR","OBJECT_ID":"2022-017S","TLE_LINE2":"2 51784  53.2193  48.2263 0001506  56.5675 303.5461 15.08824086 38691","TLE_LINE1":"1 51784U 22017S   22313.62884037 -.00001123  00000-0 -52511-4 0  9993","DECAY_DATE":null,"INCLINATION":"53.2193","MEAN_MOTION_DOT":"-0.00001123","REF_FRAME":"TEME","MEAN_ELEMENT_THEORY":"SGP4","MEAN_ANOMALY":"303.5461","NORAD_CAT_ID":"51784","EPHEMERIS_TYPE":"0","TIME_SYSTEM":"UTC"},{"LAUNCH_DATE":"2022-02-25","BSTAR":"-0.00107300000000","MEAN_MOTION":"15.08798981","SEMIMAJOR_AXIS":"6918.006","RCS_SIZE":"LARGE","EPOCH":"2022-11-09T17:45:49.372992","OBJECT_TYPE":"PAYLOAD","COUNTRY_CODE":"US","TIME_SYSTEM":"UTC","MEAN_ELEMENT_THEORY":"SGP4","MEAN_ANOMALY":"326.3343","NORAD_CAT_ID":"51785","EPHEMERIS_TYPE":"0","OBJECT_ID":"2022-017T","TLE_LINE2":"2 51785  53.2176  37.7477 0002296  33.7795 326.3343 15.08798981 38854","INCLINATION":"53.2176","TLE_LINE1":"1 51785U 22017T   22313.74015478 -.00017306  00000-0 -10730-2 0  9997","DECAY_DATE":null,"MEAN_MOTION_DOT":"-0.00017306","REF_FRAME":"TEME","ECCENTRICITY":"0.00022960","PERIOD":"95.440","SITE":"AFWTR","MEAN_MOTION_DDOT":"0.0000000000000","ARG_OF_PERICENTER":"33.7795","PERIAPSIS":"538.282","FILE":"3650001","OBJECT_NAME":"STARLINK-3646","APOAPSIS":"541.459","REV_AT_EPOCH":"3885","GP_ID":"217276379","CENTER_NAME":"EARTH","RA_OF_ASC_NODE":"37.7477","ELEMENT_SET_NO":"999","CLASSIFICATION_TYPE":"U"}];
